[{"OBJECT_NAME":"AFR-1","OBJECT_ID":"2023-084AJ","EPOCH":"2026-03-09T23:02:07.499328","MEAN_MOTION":15.27543824,"ECCENTRICITY":0.00099838,"INCLINATION":97.6099,"RA_OF_ASC_NODE":203.4313,"ARG_OF_PERICENTER":334.9676,"MEAN_ANOMALY":25.1077,"EPHEMERIS_TYPE":0,"CLASSIFICATION_TYPE":"U","NORAD_CAT_ID":56964,"ELEMENT_SET_NO":999,"REV_AT_EPOCH":15207,"BSTAR":0.00024843733,"MEAN_MOTION_DOT":6.624e-5,"MEAN_MOTION_DDOT":0},{"OBJECT_NAME":"STARLINK-32704","OBJECT_ID":"2025-018W","EPOCH":"2026-03-09T22:04:08.205888","MEAN_MOTION":15.30208948,"ECCENTRICITY":9.442e-5,"INCLINATION":53.1628,"RA_OF_ASC_NODE":308.5448,"ARG_OF_PERICENTER":81.3332,"MEAN_ANOMALY":278.7775,"EPHEMERIS_TYPE":0,"CLASSIFICATION_TYPE":"U","NORAD_CAT_ID":62826,"ELEMENT_SET_NO":999,"REV_AT_EPOCH":6320,"BSTAR":0.00075649015,"MEAN_MOTION_DOT":0.00022119,"MEAN_MOTION_DDOT":0}]
